[{"OBJECT_NAME":"STARLINK-3570","OBJECT_ID":"2022-022AG","EPOCH":"2026-03-09T04:32:45.429216","MEAN_MOTION":15.08832143,"ECCENTRICITY":0.00018759,"INCLINATION":53.2211,"RA_OF_ASC_NODE":1.3804,"ARG_OF_PERICENTER":91.5099,"MEAN_ANOMALY":268.6108,"EPHEMERIS_TYPE":0,"CLASSIFICATION_TYPE":"U","NORAD_CAT_ID":51882,"ELEMENT_SET_NO":999,"REV_AT_EPOCH":22322,"BSTAR":1.7344565e-5,"MEAN_MOTION_DOT":-1.2e-7,"MEAN_MOTION_DDOT":0},{"OBJECT_NAME":"RAAF M1","OBJECT_ID":"2018-099X","EPOCH":"2026-03-09T15:51:10.230048","MEAN_MOTION":15.07065376,"ECCENTRICITY":0.00134971,"INCLINATION":97.4534,"RA_OF_ASC_NODE":114.8325,"ARG_OF_PERICENTER":21.6261,"MEAN_ANOMALY":338.5534,"EPHEMERIS_TYPE":0,"CLASSIFICATION_TYPE":"U","NORAD_CAT_ID":43779,"ELEMENT_SET_NO":999,"REV_AT_EPOCH":39714,"BSTAR":0.00026511092,"MEAN_MOTION_DOT":3.923e-5,"MEAN_MOTION_DDOT":0}]
